***************************************************************************************
 Date__(UT)__HR:MN Date_________JDUT     R.A.___(ICRF/J2000.0)___DEC dRA*cosD d(DEC)/dt
***************************************************************************************
$$SOE
 2026-Jan-27 17:16 2461068.219444444     18 40 41.1999 -13 01 17.432  51.45827   5.40927
 2026-Jan-27 17:17 2461068.220138889     18 40 41.2586 -13 01 17.344  51.45944   5.40979
 2026-Jan-27 17:18 2461068.220833333     18 40 41.3173 -13 01 17.256  51.46063   5.41031
 2026-Jan-27 17:19 2461068.221527778     18 40 41.3760 -13 01 17.168  51.46182   5.41083
 2026-Jan-27 17:20 2461068.222222222     18 40 41.4348 -13 01 17.080  51.46302   5.41135
 2026-Jan-27 17:21 2461068.222916667     18 40 41.4935 -13 01 16.992  51.46423   5.41186
 2026-Jan-27 17:22 2461068.223611111     18 40 41.5522 -13 01 16.904  51.46544   5.41238
 2026-Jan-27 17:23 2461068.224305556     18 40 41.6109 -13 01 16.816  51.46667   5.41289
 2026-Jan-27 17:24 2461068.225000000     18 40 41.6696 -13 01 16.728  51.46790   5.41340
 2026-Jan-27 17:25 2461068.225694445     18 40 41.7283 -13 01 16.640  51.46914   5.41391
 2026-Jan-27 17:26 2461068.226388889     18 40 41.7870 -13 01 16.552  51.47038   5.41442
 2026-Jan-27 17:27 2461068.227083333     18 40 41.8457 -13 01 16.464  51.47164   5.41493
 2026-Jan-27 17:28 2461068.227777778     18 40 41.9045 -13 01 16.376  51.47290   5.41544
 2026-Jan-27 17:29 2461068.228472222     18 40 41.9632 -13 01 16.288  51.47417   5.41594
 2026-Jan-27 17:30 2461068.229166667     18 40 42.0219 -13 01 16.200  51.47544   5.41645
 2026-Jan-27 17:31 2461068.229861111     18 40 42.0806 -13 01 16.111  51.47673   5.41695
 2026-Jan-27 17:32 2461068.230555556     18 40 42.1394 -13 01 16.023  51.47802   5.41745
 2026-Jan-27 17:33 2461068.231250000     18 40 42.1981 -13 01 15.935  51.47932   5.41795
 2026-Jan-27 17:34 2461068.231944445     18 40 42.2568 -13 01 15.847  51.48063   5.41845
 2026-Jan-27 17:35 2461068.232638889     18 40 42.3155 -13 01 15.759  51.48194   5.41895
 2026-Jan-27 17:36 2461068.233333333     18 40 42.3743 -13 01 15.671  51.48326   5.41944
 2026-Jan-27 17:37 2461068.234027778     18 40 42.4330 -13 01 15.583  51.48459   5.41994
 2026-Jan-27 17:38 2461068.234722222     18 40 42.4917 -13 01 15.495  51.48593   5.42043
 2026-Jan-27 17:39 2461068.235416667     18 40 42.5505 -13 01 15.406  51.48727   5.42092
 2026-Jan-27 17:40 2461068.236111111     18 40 42.6092 -13 01 15.318  51.48862   5.42141
 2026-Jan-27 17:41 2461068.236805555     18 40 42.6680 -13 01 15.230  51.48998   5.42190
 2026-Jan-27 17:42 2461068.237500000     18 40 42.7267 -13 01 15.142  51.49134   5.42239
 2026-Jan-27 17:43 2461068.238194444     18 40 42.7854 -13 01 15.054  51.49271   5.42287
 2026-Jan-27 17:44 2461068.238888889     18 40 42.8442 -13 01 14.966  51.49409   5.42336
 2026-Jan-27 17:45 2461068.239583334     18 40 42.9029 -13 01 14.877  51.49548   5.42384
 2026-Jan-27 17:46 2461068.240277778     18 40 42.9617 -13 01 14.789  51.49687   5.42432
 2026-Jan-27 17:47 2461068.240972222     18 40 43.0204 -13 01 14.701  51.49827   5.42480
 2026-Jan-27 17:48 2461068.241666667     18 40 43.0792 -13 01 14.613  51.49968   5.42528
 2026-Jan-27 17:49 2461068.242361111     18 40 43.1379 -13 01 14.524  51.50109   5.42576
 2026-Jan-27 17:50 2461068.243055556     18 40 43.1967 -13 01 14.436  51.50252   5.42624
 2026-Jan-27 17:51 2461068.243750000     18 40 43.2554 -13 01 14.348  51.50394   5.42671
 2026-Jan-27 17:52 2461068.244444444     18 40 43.3142 -13 01 14.260  51.50538   5.42718
 2026-Jan-27 17:53 2461068.245138889     18 40 43.3729 -13 01 14.171  51.50682   5.42765
 2026-Jan-27 17:54 2461068.245833333     18 40 43.4317 -13 01 14.083  51.50827   5.42812
 2026-Jan-27 17:55 2461068.246527778     18 40 43.4905 -13 01 13.995  51.50973   5.42859
 2026-Jan-27 17:56 2461068.247222222     18 40 43.5492 -13 01 13.907  51.51119   5.42906
 2026-Jan-27 17:57 2461068.247916667     18 40 43.6080 -13 01 13.818  51.51266   5.42953
 2026-Jan-27 17:58 2461068.248611111     18 40 43.6667 -13 01 13.730  51.51414   5.42999
 2026-Jan-27 17:59 2461068.249305556     18 40 43.7255 -13 01 13.642  51.51562   5.43045
 2026-Jan-27 18:00 2461068.250000000     18 40 43.7843 -13 01 13.553  51.51711   5.43091
 2026-Jan-27 18:01 2461068.250694444     18 40 43.8431 -13 01 13.465  51.51860   5.43137
 2026-Jan-27 18:02 2461068.251388889     18 40 43.9018 -13 01 13.377  51.52011   5.43183
 2026-Jan-27 18:03 2461068.252083333     18 40 43.9606 -13 01 13.288  51.52162   5.43229
 2026-Jan-27 18:04 2461068.252777778     18 40 44.0194 -13 01 13.200  51.52313   5.43274
 2026-Jan-27 18:05 2461068.253472222     18 40 44.0782 -13 01 13.112  51.52466   5.43319
 2026-Jan-27 18:06 2461068.254166667     18 40 44.1369 -13 01 13.023  51.52618   5.43365
 2026-Jan-27 18:07 2461068.254861111     18 40 44.1957 -13 01 12.935  51.52772   5.43410
 2026-Jan-27 18:08 2461068.255555556     18 40 44.2545 -13 01 12.847  51.52926   5.43455
 2026-Jan-27 18:09 2461068.256250000     18 40 44.3133 -13 01 12.758  51.53081   5.43499
 2026-Jan-27 18:10 2461068.256944445     18 40 44.3721 -13 01 12.670  51.53237   5.43544
 2026-Jan-27 18:11 2461068.257638889     18 40 44.4309 -13 01 12.581  51.53393   5.43588
 2026-Jan-27 18:12 2461068.258333333     18 40 44.4896 -13 01 12.493  51.53550   5.43632
 2026-Jan-27 18:13 2461068.259027778     18 40 44.5484 -13 01 12.405  51.53707   5.43676
 2026-Jan-27 18:14 2461068.259722222     18 40 44.6072 -13 01 12.316  51.53865   5.43720
 2026-Jan-27 18:15 2461068.260416667     18 40 44.6660 -13 01 12.228  51.54024   5.43764
 2026-Jan-27 18:16 2461068.261111111     18 40 44.7248 -13 01 12.139  51.54183   5.43808
 2026-Jan-27 18:17 2461068.261805556     18 40 44.7836 -13 01 12.051  51.54343   5.43851
 2026-Jan-27 18:18 2461068.262500000     18 40 44.8424 -13 01 11.962  51.54503   5.43894
 2026-Jan-27 18:19 2461068.263194445     18 40 44.9012 -13 01 11.874  51.54664   5.43937
 2026-Jan-27 18:20 2461068.263888889     18 40 44.9600 -13 01 11.785  51.54826   5.43980
 2026-Jan-27 18:21 2461068.264583333     18 40 45.0188 -13 01 11.697  51.54988   5.44023
 2026-Jan-27 18:22 2461068.265277778     18 40 45.0777 -13 01 11.608  51.55151   5.44065
 2026-Jan-27 18:23 2461068.265972222     18 40 45.1365 -13 01 11.520  51.55315   5.44108
 2026-Jan-27 18:24 2461068.266666667     18 40 45.1953 -13 01 11.432  51.55479   5.44150
 2026-Jan-27 18:25 2461068.267361111     18 40 45.2541 -13 01 11.343  51.55644   5.44192
 2026-Jan-27 18:26 2461068.268055555     18 40 45.3129 -13 01 11.255  51.55809   5.44234
 2026-Jan-27 18:27 2461068.268750000     18 40 45.3717 -13 01 11.166  51.55975   5.44276
 2026-Jan-27 18:28 2461068.269444444     18 40 45.4305 -13 01 11.077  51.56141   5.44317
 2026-Jan-27 18:29 2461068.270138889     18 40 45.4894 -13 01 10.989  51.56308   5.44359
 2026-Jan-27 18:30 2461068.270833334     18 40 45.5482 -13 01 10.900  51.56476   5.44400
 2026-Jan-27 18:31 2461068.271527778     18 40 45.6070 -13 01 10.812  51.56644   5.44441
 2026-Jan-27 18:32 2461068.272222222     18 40 45.6658 -13 01 10.723  51.56813   5.44482
 2026-Jan-27 18:33 2461068.272916667     18 40 45.7247 -13 01 10.635  51.56982   5.44522
 2026-Jan-27 18:34 2461068.273611111     18 40 45.7835 -13 01 10.546  51.57152   5.44563
 2026-Jan-27 18:35 2461068.274305556     18 40 45.8423 -13 01 10.458  51.57322   5.44603
 2026-Jan-27 18:36 2461068.275000000     18 40 45.9012 -13 01 10.369  51.57493   5.44643
 2026-Jan-27 18:37 2461068.275694444     18 40 45.9600 -13 01 10.280  51.57665   5.44683
 2026-Jan-27 18:38 2461068.276388889     18 40 46.0188 -13 01 10.192  51.57837   5.44723
 2026-Jan-27 18:39 2461068.277083333     18 40 46.0777 -13 01 10.103  51.58009   5.44763
 2026-Jan-27 18:40 2461068.277777778     18 40 46.1365 -13 01 10.015  51.58183   5.44802
 2026-Jan-27 18:41 2461068.278472222     18 40 46.1954 -13 01 09.926  51.58356   5.44842
 2026-Jan-27 18:42 2461068.279166667     18 40 46.2542 -13 01 09.837  51.58531   5.44881
 2026-Jan-27 18:43 2461068.279861111     18 40 46.3131 -13 01 09.749  51.58705   5.44920
 2026-Jan-27 18:44 2461068.280555556     18 40 46.3719 -13 01 09.660  51.58881   5.44959
 2026-Jan-27 18:45 2461068.281250000     18 40 46.4308 -13 01 09.572  51.59056   5.44997
 2026-Jan-27 18:46 2461068.281944444     18 40 46.4896 -13 01 09.483  51.59233   5.45035
 2026-Jan-27 18:47 2461068.282638889     18 40 46.5485 -13 01 09.394  51.59410   5.45074
 2026-Jan-27 18:48 2461068.283333333     18 40 46.6073 -13 01 09.306  51.59587   5.45112
 2026-Jan-27 18:49 2461068.284027778     18 40 46.6662 -13 01 09.217  51.59765   5.45150
 2026-Jan-27 18:50 2461068.284722222     18 40 46.7251 -13 01 09.128  51.59943   5.45187
 2026-Jan-27 18:51 2461068.285416667     18 40 46.7839 -13 01 09.040  51.60122   5.45225
 2026-Jan-27 18:52 2461068.286111111     18 40 46.8428 -13 01 08.951  51.60301   5.45262
 2026-Jan-27 18:53 2461068.286805556     18 40 46.9017 -13 01 08.862  51.60481   5.45299
 2026-Jan-27 18:54 2461068.287500000     18 40 46.9605 -13 01 08.774  51.60662   5.45336
 2026-Jan-27 18:55 2461068.288194445     18 40 47.0194 -13 01 08.685  51.60843   5.45373
 2026-Jan-27 18:56 2461068.288888889     18 40 47.0783 -13 01 08.596  51.61024   5.45409
 2026-Jan-27 18:57 2461068.289583333     18 40 47.1372 -13 01 08.507  51.61206   5.45446
 2026-Jan-27 18:58 2461068.290277778     18 40 47.1960 -13 01 08.419  51.61388   5.45482
 2026-Jan-27 18:59 2461068.290972222     18 40 47.2549 -13 01 08.330  51.61571   5.45518
 2026-Jan-27 19:00 2461068.291666667     18 40 47.3138 -13 01 08.241  51.61754   5.45554
 2026-Jan-27 19:01 2461068.292361111     18 40 47.3727 -13 01 08.153  51.61938   5.45589
 2026-Jan-27 19:02 2461068.293055556     18 40 47.4316 -13 01 08.064  51.62122   5.45625
 2026-Jan-27 19:03 2461068.293750000     18 40 47.4905 -13 01 07.975  51.62307   5.45660
 2026-Jan-27 19:04 2461068.294444445     18 40 47.5494 -13 01 07.886  51.62492   5.45695
$$EOE
